{"type": "FeatureCollection", "features": [ {"type": "Feature", "properties": {"norad_id": 66656, "name": "2025-274G", "group": "last-30-days", "lat": 74.5058291324637, "lon": -121.21382344058742, "alt_km": 591.8975210863782, "timestamp": "2025-12-06T20:37:54.814652+00:00", "meta": {"OBJECT_NAME": "2025-274G", "OBJECT_ID": "2025-274G", "EPOCH": "2025-12-06T13:51:08.777088", "MEAN_MOTION": 14.92217481, "ECCENTRICITY": 0.00124552, "INCLINATION": 97.7391, "RA_OF_ASC_NODE": 267.8866, "ARG_OF_PERICENTER": 280.6757, "MEAN_ANOMALY": 79.3059, "EPHEMERIS_TYPE": 0, "CLASSIFICATION_TYPE": "U", "NORAD_CAT_ID": 66656, "ELEMENT_SET_NO": 999, "REV_AT_EPOCH": 148, "BSTAR": 0.00049254934, "MEAN_MOTION_DOT": 4.972e-05, "MEAN_MOTION_DDOT": 0}, "tle": {"line1": "1 66656U 25274G   25340.57718492  .00004972  00000+0  49255-3 0  9995", "line2": "2 66656  97.7391 267.8866 0012455 280.6757  79.3059 14.92217481  1487"}}, "geometry": {"type": "Point", "coordinates": [-121.21382344058742, 74.5058291324637]}}, {"type": "Feature", "properties": {"norad_id": 66657, "name": "SPIRONE", "group": "last-30-days", "lat": 79.65187690866463, "lon": -139.97023005608708, "alt_km": 589.2919505142472, "timestamp": "2025-12-06T20:37:54.814662+00:00", "meta": {"OBJECT_NAME": "SPIRONE", "OBJECT_ID": "2025-274H", "EPOCH": "2025-12-06T12:12:53.945280", "MEAN_MOTION": 14.92396474, "ECCENTRICITY": 0.00109747, "INCLINATION": 97.7389, "RA_OF_ASC_NODE": 267.8223, "ARG_OF_PERICENTER": 300.015, "MEAN_ANOMALY": 59.998, "EPHEMERIS_TYPE": 0, "CLASSIFICATION_TYPE": "U", "NORAD_CAT_ID": 66657, "ELEMENT_SET_NO": 999, "REV_AT_EPOCH": 147, "BSTAR": 0.0004858557, "MEAN_MOTION_DOT": 4.924e-05, "MEAN_MOTION_DDOT": 0}, "tle": {"line1": "1 66657U 25274H   25340.50895770  .00004924  00000+0  48586-3 0  9997", "line2": "2 66657  97.7389 267.8223 0010974 300.0150  59.9980 14.92396474  1476"}}, "geometry": {"type": "Point", "coordinates": [-139.97023005608708, 79.65187690866463]}}, {"type": "Feature", "properties": {"norad_id": 66658, "name": "2025-274J", "group": "last-30-days", "lat": 82.24206645507547, "lon": -178.4133435118509, "alt_km": 589.2545091498032, "timestamp": "2025-12-06T20:37:54.814674+00:00", "meta": {"OBJECT_NAME": "2025-274J", "OBJECT_ID": "2025-274J", "EPOCH": "2025-12-06T12:11:14.224128", "MEAN_MOTION": 14.92570037, "ECCENTRICITY": 0.00115574, "INCLINATION": 97.7391, "RA_OF_ASC_NODE": 267.8234, "ARG_OF_PERICENTER": 302.9889, "MEAN_ANOMALY": 57.0218, "EPHEMERIS_TYPE": 0, "CLASSIFICATION_TYPE": "U", "NORAD_CAT_ID": 66658, "ELEMENT_SET_NO": 999, "REV_AT_EPOCH": 147, "BSTAR": 0.00047136021, "MEAN_MOTION_DOT": 4.797e-05, "MEAN_MOTION_DDOT": 0}, "tle": {"line1": "1 66658U 25274J   25340.50780352  .00004797  00000+0  47136-3 0  9995", "line2": "2 66658  97.7391 267.8234 0011557 302.9889  57.0218 14.92570037  1472"}}, "geometry": {"type": "Point", "coordinates": [-178.4133435118509, 82.24206645507547]}}, {"type": "Feature", "properties": {"norad_id": 66659, "name": "JACK K", "group": "last-30-days", "lat": 80.00130547764707, "lon": 138.65021164745974, "alt_km": 589.6057189957774, "timestamp": "2025-12-06T20:37:54.814686+00:00", "meta": {"OBJECT_NAME": "JACK K", "OBJECT_ID": "2025-274K", "EPOCH": "2025-12-06T12:09:28.530144", "MEAN_MOTION": 14.92755789, "ECCENTRICITY": 0.0012286, "INCLINATION": 97.7393, "RA_OF_ASC_NODE": 267.8254, "ARG_OF_PERICENTER": 304.1059, "MEAN_ANOMALY": 55.8994, "EPHEMERIS_TYPE": 0, "CLASSIFICATION_TYPE": "U", "NORAD_CAT_ID": 66659, "ELEMENT_SET_NO": 999, "REV_AT_EPOCH": 147, "BSTAR": 0.00046618459, "MEAN_MOTION_DOT": 4.767e-05, "MEAN_MOTION_DDOT": 0}, "tle": {"line1": "1 66659U 25274K   25340.50658021  .00004767  00000+0  46618-3 0  9994", "line2": "2 66659  97.7393 267.8254 0012286 304.1059  55.8994 14.92755789  1476"}}, "geometry": {"type": "Point", "coordinates": [138.65021164745974, 80.00130547764707]}}, {"type": "Feature", "properties": {"norad_id": 66660, "name": "K-HERO", "group": "last-30-days", "lat": 75.90602507734856, "lon": 120.97432686206292, "alt_km": 590.0644446810275, "timestamp": "2025-12-06T20:37:54.814697+00:00", "meta": {"OBJECT_NAME": "K-HERO", "OBJECT_ID": "2025-274L", "EPOCH": "2025-12-06T12:08:03.554016", "MEAN_MOTION": 14.92904179, "ECCENTRICITY": 0.00129328, "INCLINATION": 97.7397, "RA_OF_ASC_NODE": 267.8271, "ARG_OF_PERICENTER": 304.6853, "MEAN_ANOMALY": 55.3147, "EPHEMERIS_TYPE": 0, "CLASSIFICATION_TYPE": "U", "NORAD_CAT_ID": 66660, "ELEMENT_SET_NO": 999, "REV_AT_EPOCH": 147, "BSTAR": 0.00045617475, "MEAN_MOTION_DOT": 4.682e-05, "MEAN_MOTION_DDOT": 0}, "tle": {"line1": "1 66660U 25274L   25340.50559669  .00004682  00000+0  45617-3 0  9998", "line2": "2 66660  97.7397 267.8271 0012932 304.6853  55.3147 14.92904179  1470"}}, "geometry": {"type": "Point", "coordinates": [120.97432686206292, 75.90602507734856]}}, {"type": "Feature", "properties": {"norad_id": 66661, "name": "SNUGLITE-III", "group": "last-30-days", "lat": 70.99373992625942, "lon": 111.43234710054544, "alt_km": 590.5903228599973, "timestamp": "2025-12-06T20:37:54.814707+00:00", "meta": {"OBJECT_NAME": "SNUGLITE-III", "OBJECT_ID": "2025-274M", "EPOCH": "2025-12-06T12:06:36.508608", "MEAN_MOTION": 14.93053395, "ECCENTRICITY": 0.00135673, "INCLINATION": 97.7393, "RA_OF_ASC_NODE": 267.8282, "ARG_OF_PERICENTER": 305.7513, "MEAN_ANOMALY": 54.2444, "EPHEMERIS_TYPE": 0, "CLASSIFICATION_TYPE": "U", "NORAD_CAT_ID": 66661, "ELEMENT_SET_NO": 999, "REV_AT_EPOCH": 147, "BSTAR": 0.00044921114, "MEAN_MOTION_DOT": 4.628e-05, "MEAN_MOTION_DDOT": 0}, "tle": {"line1": "1 66661U 25274M   25340.50458922  .00004628  00000+0  44921-3 0  9996", "line2": "2 66661  97.7393 267.8282 0013567 305.7513  54.2444 14.93053395  1473"}}, "geometry": {"type": "Point", "coordinates": [111.43234710054544, 70.99373992625942]}}, {"type": "Feature", "properties": {"norad_id": 66662, "name": "2025-274N", "group": "last-30-days", "lat": 68.86689709495366, "lon": 108.77787073905428, "alt_km": 591.0627923570655, "timestamp": "2025-12-06T20:37:54.814717+00:00", "meta": {"OBJECT_NAME": "2025-274N", "OBJECT_ID": "2025-274N", "EPOCH": "2025-12-06T05:39:59.423616", "MEAN_MOTION": 14.93101008, "ECCENTRICITY": 0.00140324, "INCLINATION": 97.7392, "RA_OF_ASC_NODE": 267.565, "ARG_OF_PERICENTER": 305.8521, "MEAN_ANOMALY": 54.1395, "EPHEMERIS_TYPE": 0, "CLASSIFICATION_TYPE": "U", "NORAD_CAT_ID": 66662, "ELEMENT_SET_NO": 999, "REV_AT_EPOCH": 143, "BSTAR": 0.00031672786, "MEAN_MOTION_DOT": 3.25e-05, "MEAN_MOTION_DDOT": 0}, "tle": {"line1": "1 66662U 25274N   25340.23610444  .00003250  00000+0  31673-3 0  9996", "line2": "2 66662  97.7392 267.5650 0014032 305.8521  54.1395 14.93101008  1432"}}, "geometry": {"type": "Point", "coordinates": [108.77787073905428, 68.86689709495366]}}, {"type": "Feature", "properties": {"norad_id": 66663, "name": "KSLV-II R/B", "group": "last-30-days", "lat": -80.44271745204627, "lon": 34.37056373029998, "alt_km": 574.0093944365763, "timestamp": "2025-12-06T20:37:54.814728+00:00", "meta": {"OBJECT_NAME": "KSLV-II R/B", "OBJECT_ID": "2025-274P", "EPOCH": "2025-12-05T12:58:33.614976", "MEAN_MOTION": 14.97210966, "ECCENTRICITY": 0.00473649, "INCLINATION": 97.7405, "RA_OF_ASC_NODE": 266.9508, "ARG_OF_PERICENTER": 343.4564, "MEAN_ANOMALY": 16.5109, "EPHEMERIS_TYPE": 0, "CLASSIFICATION_TYPE": "U", "NORAD_CAT_ID": 66663, "ELEMENT_SET_NO": 999, "REV_AT_EPOCH": 133, "BSTAR": 0.0001343158, "MEAN_MOTION_DOT": 1.527e-05, "MEAN_MOTION_DDOT": 0}, "tle": {"line1": "1 66663U 25274P   25339.54066684  .00001527  00000+0  13432-3 0  9998", "line2": "2 66663  97.7405 266.9508 0047364 343.4564  16.5109 14.97210966  1334"}}, "geometry": {"type": "Point", "coordinates": [34.37056373029998, -80.44271745204627]}}, {"type": "Feature", "properties": {"norad_id": 66664, "name": "SOYUZ-MS 28", "group": "last-30-days", "lat": -24.666133281605173, "lon": 150.25429676928337, "alt_km": 422.8567199397485, "timestamp": "2025-12-06T20:37:54.814738+00:00", "meta": {"OBJECT_NAME": "SOYUZ-MS 28", "OBJECT_ID": "2025-275A", "EPOCH": "2025-12-06T13:01:49.374912", "MEAN_MOTION": 15.4936639, "ECCENTRICITY": 0.00035502, "INCLINATION": 51.6299, "RA_OF_ASC_NODE": 173.16, "ARG_OF_PERICENTER": 211.9909, "MEAN_ANOMALY": 148.0864, "EPHEMERIS_TYPE": 0, "CLASSIFICATION_TYPE": "U", "NORAD_CAT_ID": 66664, "ELEMENT_SET_NO": 999, "REV_AT_EPOCH": 128, "BSTAR": 0.00027332684, "MEAN_MOTION_DOT": 0.00014832, "MEAN_MOTION_DDOT": 0}, "tle": {"line1": "1 66664U 25275A   25340.54293258  .00014832  00000+0  27333-3 0  9999", "line2": "2 66664  51.6299 173.1600 0003550 211.9909 148.0864 15.49366390  1282"}}, "geometry": {"type": "Point", "coordinates": [150.25429676928337, -24.666133281605173]}}, {"type": "Feature", "properties": {"norad_id": 66820, "name": "KOMPSAT-7", "group": "last-30-days", "lat": -36.54016039372942, "lon": -67.44615853911756, "alt_km": 577.2674832786033, "timestamp": "2025-12-06T20:37:54.814751+00:00", "meta": {"OBJECT_NAME": "KOMPSAT-7", "OBJECT_ID": "2025-279A", "EPOCH": "2025-12-06T14:23:07.341792", "MEAN_MOTION": 14.98352979, "ECCENTRICITY": 0.00094976, "INCLINATION": 97.6392, "RA_OF_ASC_NODE": 286.5909, "ARG_OF_PERICENTER": 243.579, "MEAN_ANOMALY": 116.4458, "EPHEMERIS_TYPE": 0, "CLASSIFICATION_TYPE": "U", "NORAD_CAT_ID": 66820, "ELEMENT_SET_NO": 999, "REV_AT_EPOCH": 73, "BSTAR": 0.00038731982, "MEAN_MOTION_DOT": 4.562e-05, "MEAN_MOTION_DDOT": 0}, "tle": {"line1": "1 66820U 25279A   25340.59939053  .00004562  00000+0  38732-3 0  9996", "line2": "2 66820  97.6392 286.5909 0009497 243.5790 116.4458 14.98352979   734"}}, "geometry": {"type": "Point", "coordinates": [-67.44615853911756, -36.54016039372942]}}]}